{
    "links": {
        "self": "http://www.neowsapp.com/rest/v1/neo/3313560?api_key=iIulBulltgU6a56xZRHN4H3l9WmuAYTsLGpBGhQ2"
    },
    "id": "3313560",
    "neo_reference_id": "3313560",
    "name": "(2006 BQ7)",
    "designation": "2006 BQ7",
    "nasa_jpl_url": "http://ssd.jpl.nasa.gov/sbdb.cgi?sstr=3313560",
    "absolute_magnitude_h": 26.5,
    "estimated_diameter": {
        "kilometers": {
            "estimated_diameter_min": 0.0133215567,
            "estimated_diameter_max": 0.0297879063
        },
        "meters": {
            "estimated_diameter_min": 13.3215566698,
            "estimated_diameter_max": 29.7879062798
        },
        "miles": {
            "estimated_diameter_min": 0.008277629,
            "estimated_diameter_max": 0.0185093411
        },
        "feet": {
            "estimated_diameter_min": 43.7058959846,
            "estimated_diameter_max": 97.7293544391
        }
    },
    "is_potentially_hazardous_asteroid": false,
    "close_approach_data": [
        {
            "close_approach_date": "1916-11-14",
            "close_approach_date_full": "1916-Nov-14 16:43",
            "epoch_date_close_approach": -1676618220000,
            "relative_velocity": {
                "kilometers_per_second": "11.1906675797",
                "kilometers_per_hour": "40286.4032869103",
                "miles_per_hour": "25032.4043090249"
            },
            "miss_distance": {
                "astronomical": "0.272132503",
                "lunar": "105.859543667",
                "kilometers": "40710442.80656861",
                "miles": "25296296.155162418"
            },
            "orbiting_body": "Earth"
        },
        {
            "close_approach_date": "1952-11-02",
            "close_approach_date_full": "1952-Nov-02 19:12",
            "epoch_date_close_approach": -541572480000,
            "relative_velocity": {
                "kilometers_per_second": "16.893974495",
                "kilometers_per_hour": "60818.3081819982",
                "miles_per_hour": "37790.1315478644"
            },
            "miss_distance": {
                "astronomical": "0.4572845062",
                "lunar": "177.8836729118",
                "kilometers": "68408788.111521794",
                "miles": "42507249.8451329972"
            },
            "orbiting_body": "Earth"
        },
        {
            "close_approach_date": "1956-02-11",
            "close_approach_date_full": "1956-Feb-11 13:03",
            "epoch_date_close_approach": -438260220000,
            "relative_velocity": {
                "kilometers_per_second": "12.3470152923",
                "kilometers_per_hour": "44449.2550524521",
                "miles_per_hour": "27619.0385074528"
            },
            "miss_distance": {
                "astronomical": "0.2902010164",
                "lunar": "112.8881953796",
                "kilometers": "43413453.925275068",
                "miles": "26975869.3814812184"
            },
            "orbiting_body": "Earth"
        },
        {
            "close_approach_date": "2006-01-13",
            "close_approach_date_full": "2006-Jan-13 02:49",
            "epoch_date_close_approach": 1137120540000,
            "relative_velocity": {
                "kilometers_per_second": "4.3369904136",
                "kilometers_per_hour": "15613.1654891048",
                "miles_per_hour": "9701.4138562718"
            },
            "miss_distance": {
                "astronomical": "0.0281238737",
                "lunar": "10.9401868693",
                "kilometers": "4207271.601669019",
                "miles": "2614277.3476257022"
            },
            "orbiting_body": "Earth"
        }
    ],
    "orbital_data": {
        "orbit_id": "8",
        "orbit_determination_date": "2017-04-06 09:09:21",
        "first_observation_date": "2006-01-22",
        "last_observation_date": "2006-01-31",
        "data_arc_in_days": 9,
        "observations_used": 23,
        "orbit_uncertainty": "8",
        "minimum_orbit_intersection": ".0281576",
        "jupiter_tisserand_invariant": "4.843",
        "epoch_osculation": "2453759.5",
        "eccentricity": ".2573102256360906",
        "semi_major_axis": "1.346914806103642",
        "inclination": "4.971855443296856",
        "ascending_node_longitude": "302.1443190955091",
        "orbital_period": "570.9638567400511",
        "perihelion_distance": "1.000339853432523",
        "perihelion_argument": "155.0615861202324",
        "aphelion_distance": "1.693489758774762",
        "perihelion_time": "2453734.621992918856",
        "mean_anomaly": "15.68590103119149",
        "mean_motion": ".6305127649505511",
        "equinox": "J2000",
        "orbit_class": {
            "orbit_class_type": "APO",
            "orbit_class_description": "Near-Earth asteroid orbits which cross the Earth’s orbit similar to that of 1862 Apollo",
            "orbit_class_range": "a (semi-major axis) > 1.0 AU; q (perihelion) < 1.017 AU"
        }
    },
    "is_sentry_object": false
}